{"type": "FeatureCollection", "features": [ {"type": "Feature", "properties": {"norad_id": 39019, "name": "PLEIADES 1B", "group": "resource", "lat": 0.7677407427873211, "lon": -114.43772362030126, "alt_km": 700.7896310853121, "timestamp": "2025-12-18T21:31:50.639036+00:00", "meta": {"OBJECT_NAME": "PLEIADES 1B", "OBJECT_ID": "2012-068A", "EPOCH": "2025-12-18T07:32:26.830752", "MEAN_MOTION": 14.58557929, "ECCENTRICITY": 0.00011614, "INCLINATION": 98.1793, "RA_OF_ASC_NODE": 64.8782, "ARG_OF_PERICENTER": 85.7606, "MEAN_ANOMALY": 274.3726, "EPHEMERIS_TYPE": 0, "CLASSIFICATION_TYPE": "U", "NORAD_CAT_ID": 39019, "ELEMENT_SET_NO": 999, "REV_AT_EPOCH": 69448, "BSTAR": 7.2051617e-05, "MEAN_MOTION_DOT": 2.89e-06, "MEAN_MOTION_DDOT": 0}, "tle": {"line1": "1 39019U 12068A   25352.31419943  .00000289  00000+0  72052-4 0  9998", "line2": "2 39019  98.1793  64.8782 0001161  85.7606 274.3726 14.58557929694484"}}, "geometry": {"type": "Point", "coordinates": [-114.43772362030126, 0.7677407427873211]}}, {"type": "Feature", "properties": {"norad_id": 39030, "name": "GOKTURK 2", "group": "resource", "lat": 44.134109108182834, "lon": -173.2847065237945, "alt_km": 640.0836671792649, "timestamp": "2025-12-18T21:31:50.639047+00:00", "meta": {"OBJECT_NAME": "GOKTURK 2", "OBJECT_ID": "2012-073A", "EPOCH": "2025-12-18T06:40:44.599008", "MEAN_MOTION": 14.75299771, "ECCENTRICITY": 0.00011807, "INCLINATION": 97.6891, "RA_OF_ASC_NODE": 193.6591, "ARG_OF_PERICENTER": 107.3373, "MEAN_ANOMALY": 252.7967, "EPHEMERIS_TYPE": 0, "CLASSIFICATION_TYPE": "U", "NORAD_CAT_ID": 39030, "ELEMENT_SET_NO": 999, "REV_AT_EPOCH": 69783, "BSTAR": 0.0001241325, "MEAN_MOTION_DOT": 7.94e-06, "MEAN_MOTION_DDOT": 0}, "tle": {"line1": "1 39030U 12073A   25352.27829397  .00000794  00000+0  12413-3 0  9995", "line2": "2 39030  97.6891 193.6591 0001180 107.3373 252.7967 14.75299771697838"}}, "geometry": {"type": "Point", "coordinates": [-173.2847065237945, 44.134109108182834]}}, {"type": "Feature", "properties": {"norad_id": 39084, "name": "LANDSAT 8", "group": "resource", "lat": -42.3195266092575, "lon": 68.43046030128117, "alt_km": 709.6225520321941, "timestamp": "2025-12-18T21:31:50.639057+00:00", "meta": {"OBJECT_NAME": "LANDSAT 8", "OBJECT_ID": "2013-008A", "EPOCH": "2025-12-18T05:14:46.900896", "MEAN_MOTION": 14.57108263, "ECCENTRICITY": 0.00010789, "INCLINATION": 98.2067, "RA_OF_ASC_NODE": 60.2111, "ARG_OF_PERICENTER": 88.8251, "MEAN_ANOMALY": 271.3071, "EPHEMERIS_TYPE": 0, "CLASSIFICATION_TYPE": "U", "NORAD_CAT_ID": 39084, "ELEMENT_SET_NO": 999, "REV_AT_EPOCH": 67154, "BSTAR": 8.6393484e-05, "MEAN_MOTION_DOT": 3.44e-06, "MEAN_MOTION_DDOT": 0}, "tle": {"line1": "1 39084U 13008A   25352.21859839  .00000344  00000+0  86393-4 0  9991", "line2": "2 39084  98.2067  60.2111 0001078  88.8251 271.3071 14.57108263671548"}}, "geometry": {"type": "Point", "coordinates": [68.43046030128117, -42.3195266092575]}}, {"type": "Feature", "properties": {"norad_id": 39086, "name": "SARAL", "group": "resource", "lat": 55.059479996817984, "lon": 9.181792915966867, "alt_km": 775.3951548886143, "timestamp": "2025-12-18T21:31:50.639068+00:00", "meta": {"OBJECT_NAME": "SARAL", "OBJECT_ID": "2013-009A", "EPOCH": "2025-12-18T05:52:12.027360", "MEAN_MOTION": 14.32758938, "ECCENTRICITY": 0.00029423, "INCLINATION": 98.5502, "RA_OF_ASC_NODE": 176.1031, "ARG_OF_PERICENTER": 98.3649, "MEAN_ANOMALY": 261.7869, "EPHEMERIS_TYPE": 0, "CLASSIFICATION_TYPE": "U", "NORAD_CAT_ID": 39086, "ELEMENT_SET_NO": 999, "REV_AT_EPOCH": 66969, "BSTAR": 5.4073043e-05, "MEAN_MOTION_DOT": 1.04e-06, "MEAN_MOTION_DDOT": 0}, "tle": {"line1": "1 39086U 13009A   25352.24458365  .00000104  00000+0  54073-4 0  9990", "line2": "2 39086  98.5502 176.1031 0002942  98.3649 261.7869 14.32758938669697"}}, "geometry": {"type": "Point", "coordinates": [9.181792915966867, 55.059479996817984]}}, {"type": "Feature", "properties": {"norad_id": 39150, "name": "GAOFEN-1", "group": "resource", "lat": 29.06895175067891, "lon": -112.10671768976151, "alt_km": 627.2789703933313, "timestamp": "2025-12-18T21:31:50.639078+00:00", "meta": {"OBJECT_NAME": "GAOFEN-1", "OBJECT_ID": "2013-018A", "EPOCH": "2025-12-18T07:50:28.441248", "MEAN_MOTION": 14.76544486, "ECCENTRICITY": 0.00184786, "INCLINATION": 97.9327, "RA_OF_ASC_NODE": 62.8875, "ARG_OF_PERICENTER": 125.8554, "MEAN_ANOMALY": 234.4375, "EPHEMERIS_TYPE": 0, "CLASSIFICATION_TYPE": "U", "NORAD_CAT_ID": 39150, "ELEMENT_SET_NO": 999, "REV_AT_EPOCH": 68155, "BSTAR": 0.00010907844, "MEAN_MOTION_DOT": 7.11e-06, "MEAN_MOTION_DDOT": 0}, "tle": {"line1": "1 39150U 13018A   25352.32671807  .00000711  00000+0  10908-3 0  9991", "line2": "2 39150  97.9327  62.8875 0018478 125.8554 234.4375 14.76544486681553"}}, "geometry": {"type": "Point", "coordinates": [-112.10671768976151, 29.06895175067891]}}, {"type": "Feature", "properties": {"norad_id": 39160, "name": "VNREDSAT 1", "group": "resource", "lat": -43.687683869605465, "lon": 55.614977685872255, "alt_km": 684.3941911034099, "timestamp": "2025-12-18T21:31:50.639088+00:00", "meta": {"OBJECT_NAME": "VNREDSAT 1", "OBJECT_ID": "2013-021B", "EPOCH": "2025-12-18T06:58:43.171680", "MEAN_MOTION": 14.64931453, "ECCENTRICITY": 0.00011965, "INCLINATION": 97.9372, "RA_OF_ASC_NODE": 47.3715, "ARG_OF_PERICENTER": 77.5486, "MEAN_ANOMALY": 282.5851, "EPHEMERIS_TYPE": 0, "CLASSIFICATION_TYPE": "U", "NORAD_CAT_ID": 39160, "ELEMENT_SET_NO": 999, "REV_AT_EPOCH": 67380, "BSTAR": 0.00012828534, "MEAN_MOTION_DOT": 6.41e-06, "MEAN_MOTION_DDOT": 0}, "tle": {"line1": "1 39160U 13021B   25352.29077745  .00000641  00000+0  12829-3 0  9999", "line2": "2 39160  97.9372  47.3715 0001196  77.5486 282.5851 14.64931453673804"}}, "geometry": {"type": "Point", "coordinates": [55.614977685872255, -43.687683869605465]}}, {"type": "Feature", "properties": {"norad_id": 39227, "name": "ARIRANG-5 (KOMPSAT-5)", "group": "resource", "lat": -10.509526881270288, "lon": -4.310084908119785, "alt_km": 559.3604168227048, "timestamp": "2025-12-18T21:31:50.639098+00:00", "meta": {"OBJECT_NAME": "ARIRANG-5 (KOMPSAT-5)", "OBJECT_ID": "2013-042A", "EPOCH": "2025-12-18T06:19:16.559904", "MEAN_MOTION": 15.04529498, "ECCENTRICITY": 0.00034318, "INCLINATION": 97.6148, "RA_OF_ASC_NODE": 176.4876, "ARG_OF_PERICENTER": 40.8435, "MEAN_ANOMALY": 319.3047, "EPHEMERIS_TYPE": 0, "CLASSIFICATION_TYPE": "U", "NORAD_CAT_ID": 39227, "ELEMENT_SET_NO": 999, "REV_AT_EPOCH": 67665, "BSTAR": 0.00015742472, "MEAN_MOTION_DOT": 2.145e-05, "MEAN_MOTION_DDOT": 0}, "tle": {"line1": "1 39227U 13042A   25352.26338611  .00002145  00000+0  15742-3 0  9993", "line2": "2 39227  97.6148 176.4876 0003431  40.8435 319.3047 15.04529498676658"}}, "geometry": {"type": "Point", "coordinates": [-4.310084908119785, -10.509526881270288]}}, {"type": "Feature", "properties": {"norad_id": 39418, "name": "SKYSAT-A", "group": "resource", "lat": 0.7531861700293533, "lon": 42.820843017505815, "alt_km": 546.282018929337, "timestamp": "2025-12-18T21:31:50.639109+00:00", "meta": {"OBJECT_NAME": "SKYSAT-A", "OBJECT_ID": "2013-066C", "EPOCH": "2025-12-18T02:27:47.284704", "MEAN_MOTION": 15.11641466, "ECCENTRICITY": 0.00210733, "INCLINATION": 97.4104, "RA_OF_ASC_NODE": 42.1485, "ARG_OF_PERICENTER": 217.1945, "MEAN_ANOMALY": 142.7827, "EPHEMERIS_TYPE": 0, "CLASSIFICATION_TYPE": "U", "NORAD_CAT_ID": 39418, "ELEMENT_SET_NO": 999, "REV_AT_EPOCH": 66111, "BSTAR": 0.00018857025, "MEAN_MOTION_DOT": 3.158e-05, "MEAN_MOTION_DDOT": 0}, "tle": {"line1": "1 39418U 13066C   25352.10263061  .00003158  00000+0  18857-3 0  9995", "line2": "2 39418  97.4104  42.1485 0021073 217.1945 142.7827 15.11641466661119"}}, "geometry": {"type": "Point", "coordinates": [42.820843017505815, 0.7531861700293533]}}, {"type": "Feature", "properties": {"norad_id": 39419, "name": "DUBAISAT-2", "group": "resource", "lat": 69.87935798819471, "lon": -37.79535791503493, "alt_km": 538.9498780758713, "timestamp": "2025-12-18T21:31:50.639119+00:00", "meta": {"OBJECT_NAME": "DUBAISAT-2", "OBJECT_ID": "2013-066D", "EPOCH": "2025-12-18T06:53:13.902144", "MEAN_MOTION": 15.08410534, "ECCENTRICITY": 0.00100392, "INCLINATION": 97.4444, "RA_OF_ASC_NODE": 342.5237, "ARG_OF_PERICENTER": 301.2147, "MEAN_ANOMALY": 58.8097, "EPHEMERIS_TYPE": 0, "CLASSIFICATION_TYPE": "U", "NORAD_CAT_ID": 39419, "ELEMENT_SET_NO": 999, "REV_AT_EPOCH": 65910, "BSTAR": 0.00024279975, "MEAN_MOTION_DOT": 3.719e-05, "MEAN_MOTION_DDOT": 0}, "tle": {"line1": "1 39419U 13066D   25352.28696646  .00003719  00000+0  24280-3 0  9994", "line2": "2 39419  97.4444 342.5237 0010039 301.2147  58.8097 15.08410534659106"}}, "geometry": {"type": "Point", "coordinates": [-37.79535791503493, 69.87935798819471]}}, {"type": "Feature", "properties": {"norad_id": 39574, "name": "GPM-CORE", "group": "resource", "lat": -46.9413611103788, "lon": 162.06225260282565, "alt_km": 435.20140632251514, "timestamp": "2025-12-18T21:31:50.639129+00:00", "meta": {"OBJECT_NAME": "GPM-CORE", "OBJECT_ID": "2014-009C", "EPOCH": "2025-12-18T04:40:09.416352", "MEAN_MOTION": 15.44547749, "ECCENTRICITY": 0.00095055, "INCLINATION": 64.9723, "RA_OF_ASC_NODE": 194.4149, "ARG_OF_PERICENTER": 247.1367, "MEAN_ANOMALY": 112.877, "EPHEMERIS_TYPE": 0, "CLASSIFICATION_TYPE": "U", "NORAD_CAT_ID": 39574, "ELEMENT_SET_NO": 999, "REV_AT_EPOCH": 66985, "BSTAR": 0.0001507642, "MEAN_MOTION_DOT": 6.798e-05, "MEAN_MOTION_DDOT": 0}, "tle": {"line1": "1 39574U 14009C   25352.19455343  .00006798  00000+0  15076-3 0  9994", "line2": "2 39574  64.9723 194.4149 0009505 247.1367 112.8770 15.44547749669852"}}, "geometry": {"type": "Point", "coordinates": [162.06225260282565, -46.9413611103788]}}]}